CHINASAT 9B             
1 49125U 21080A   21280.90871358 -.00000314  00000-0  00000-0 0  9995
2 49125   0.0366 259.2314 0003863 279.0085 267.0967  1.00269905   464
CZ-3B R/B               
1 49126U 21080B   21280.60057181  .00017416 -19262-6  10519-2 0  9998
2 49126  24.6524 152.1765 7209638 198.4021 108.3105  2.40313053   508
COSMOS 2551             
1 49127U 21082A   21280.79691025  .00460241  98154-4  72593-3 0  9995
2 49127  96.3480   8.0572 0009603 216.2876 143.7756 16.03809836  4468
SL-4 R/B                
1 49128U 21081B   21280.77982870  .00109178  62172-5  27526-3 0  9991
2 49128  96.3452   7.9633 0012117 164.7485 195.4161 15.95508300  4456
STARLINK-3096           
1 49131U 21082B   21280.91667824 -.00090695  00000-0 -76484-3 0  9990
2 49131  70.0019  60.0240 0003466 281.1174 193.3489 15.69790979  3835
STARLINK-3090           
1 49132U 21082C   21280.91667824 -.00087362  00000-0 -73630-3 0  9998
2 49132  70.0016  60.0268 0003488 283.6655 188.6916 15.69793302  3833
STARLINK-3077           
1 49133U 21082D   21280.91667824 -.00096915  00000-0 -81771-3 0  9998
2 49133  70.0020  60.0225 0003473 284.1560 192.4738 15.69800167  3694
STARLINK-3078           
1 49134U 21082E   21280.91667824 -.00078446  00000-0 -66046-3 0  9996
2 49134  70.0021  60.0122 0003463 285.5562 199.5587 15.69786689  5030
STARLINK-3073           
1 49135U 21082F   21280.91667824 -.00075155  00000-0 -63246-3 0  9990
2 49135  70.0021  60.0162 0003383 285.5280 195.3264 15.69785923  3835
STARLINK-3084           
1 49136U 21082G   21280.91667824 -.00087154  00000-0 -73451-3 0  9992
2 49136  70.0018  60.0196 0003431 280.9929 197.7657 15.69794254  3695
STARLINK-3055           
1 49137U 21082H   21280.91667824 -.00088892  00000-0 -74930-3 0  9996
2 49137  70.0021  60.0139 0003708 284.1381 198.8447 15.69794031  3830
STARLINK-3058           
1 49138U 21082J   21280.91667824 -.00083865  00000-0 -70648-3 0  9994
2 49138  70.0007  60.0071 0003555 285.4993 203.8613 15.69792367  3835
STARLINK-3057           
1 49139U 21082K   21280.91667824 -.00073001  00000-0 -61437-3 0  9992
2 49139  70.0016  60.0082 0003579 285.7405 201.5178 15.69775434  3832
STARLINK-3118           
1 49140U 21082L   21280.91667824 -.00097603  00000-0 -82325-3 0  9997
2 49140  70.0015  60.0026 0003470 284.6310 208.9666 15.69810423  3835
STARLINK-3093           
1 49141U 21082M   21280.91667824 -.00095108  00000-0 -80304-3 0  9991
2 49141  70.0009  60.0035 0003505 280.8148 210.7170 15.69776542  3693
STARLINK-3042           
1 49142U 21082N   21280.91667824 -.00111921  00000-0 -94598-3 0  9994
2 49142  70.0008  59.9998 0003627 286.1115 209.6327 15.69806833  3694
STARLINK-3109           
1 49143U 21082P   21280.91667824 -.00151683  00000-0 -12878-2 0  9994
2 49143  70.0008  59.9978 0003580 283.4895 214.4005 15.69824826  3831
STARLINK-3100           
1 49144U 21082Q   21280.91667824 -.00085571  00000-0 -72094-3 0  9994
2 49144  70.0012  59.9919 0003614 284.4782 217.6568 15.69795256  3839
STARLINK-3119           
1 49145U 21082R   21280.91667824 -.00086928  00000-0 -73269-3 0  9997
2 49145  70.0014  59.9882 0003732 282.2813 224.0948 15.69788809  3833
STARLINK-3116           
1 49146U 21082S   21280.91667824 -.00134709  00000-0 -11420-2 0  9999
2 49146  70.0021  59.9898 0003458 284.5072 219.7720 15.69808559  5001
STARLINK-3071           
1 49147U 21082T   21280.91667824 -.00035782  00000-0 -29925-3 0  9991
2 49147  70.0014  59.9955 0003556 284.2065 215.8466 15.69747578  5003
STARLINK-3048           
1 49148U 21082U   21280.91667824 -.00094256  00000-0 -79524-3 0  9993
2 49148  70.0005  59.9836 0003559 285.1821 225.4678 15.69791528  3694
STARLINK-3053           
1 49149U 21082V   21280.91667824 -.00114858  00000-0 -97154-3 0  9994
2 49149  70.0013  59.9855 0003534 284.9742 223.5548 15.69798805  3697
STARLINK-3104           
1 49150U 21082W   21280.58334491 -.00012935  00000-0 -10662-3 0  9992
2 49150  70.0021  60.9141 0003599 279.7799 151.9737 15.69776325  4994
STARLINK-3102           
1 49151U 21082X   21280.91667824 -.00073447  00000-0 -61819-3 0  9994
2 49151  70.0018  59.9795 0003445 284.9447 227.8393 15.69775255  3690
STARLINK-3081           
1 49152U 21082Y   21280.91667824 -.00098616  00000-0 -83247-3 0  9999
2 49152  70.0020  59.9700 0003502 286.8389 234.4536 15.69794060  3698
STARLINK-3072           
1 49153U 21082Z   21280.91667824 -.00178747  00000-0 -15220-2 0  9999
2 49153  70.0007  59.9756 0003580 281.4780 235.5453 15.69836834  3839
STARLINK-3068           
1 49154U 21082AA  21280.91667824 -.00012767  00000-0 -10542-3 0  9992
2 49154  70.0009  59.9673 0003459 286.9469 236.4857 15.69728929  3696
STARLINK-3060           
1 49155U 21082AB  21280.91667824 -.00092135  00000-0 -77717-3 0  9997
2 49155  70.0016  59.9711 0003564 281.1214 238.0103 15.69789729  3697
STARLINK-3085           
1 49156U 21082AC  21280.91667824 -.00091752  00000-0 -77373-3 0  9990
2 49156  70.0017  59.9587 0003582 284.1493 245.6184 15.69794876  4910
STARLINK-3051           
1 49157U 21082AD  21280.91667824 -.00136653  00000-0 -11578-2 0  9995
2 49157  70.0006  59.9654 0003594 283.8175 241.7708 15.69828078  4933
STARLINK-3083           
1 49158U 21082AE  21280.91667824 -.00043967  00000-0 -36729-3 0  9997
2 49158  70.0006  59.9545 0003300 289.4477 244.6556 15.69825798  4934
STARLINK-3056           
1 49159U 21082AF  21280.91667824 -.00130080  00000-0 -11012-2 0  9998
2 49159  70.0021  59.9625 0003677 283.9856 243.6271 15.69826853  3696
STARLINK-3095           
1 49160U 21082AG  21280.91667824 -.00127478  00000-0 -10798-2 0  9997
2 49160  70.0017  59.9513 0003618 284.5909 251.6117 15.69804891  4912
STARLINK-3080           
1 49161U 21082AH  21280.91667824 -.00111557  00000-0 -94290-3 0  9999
2 49161  70.0019  59.9574 0003696 286.3541 245.5349 15.69805303  4918
STARLINK-3082           
1 49162U 21082AJ  21280.91667824 -.00076662  00000-0 -64532-3 0  9993
2 49162  70.0020  59.9467 0003460 282.0873 258.3348 15.69784711  5003
STARLINK-3088           
1 49163U 21082AK  21280.91667824 -.00086263  00000-0 -72698-3 0  9994
2 49163  70.0021  59.9492 0003462 284.1137 254.2030 15.69791757  3695
STARLINK-3106           
1 49164U 21082AL  21280.91667824 -.00128444  00000-0 -10878-2 0  9994
2 49164  70.0018  59.9362 0003543 282.9633 265.9698 15.69812530  5004
STARLINK-3052           
1 49165U 21082AM  21280.91667824 -.00088639  00000-0 -74733-3 0  9997
2 49165  70.0019  59.9446 0003447 282.6683 259.8903 15.69789528  3698
STARLINK-3089           
1 49166U 21082AN  21280.91667824 -.00072198  00000-0 -60748-3 0  9992
2 49166  70.0016  59.9387 0003359 279.6963 267.1260 15.69778853  3696
STARLINK-3054           
1 49167U 21082AP  21280.91667824 -.00076953  00000-0 -64773-3 0  9998
2 49167  70.0020  59.9416 0003575 285.8308 258.8421 15.69786621  5046
STARLINK-3101           
1 49168U 21082AQ  21280.91667824 -.00071771  00000-0 -60398-3 0  9991
2 49168  70.0012  59.9298 0003527 282.4183 272.9458 15.69772503  5048
STARLINK-3046           
1 49169U 21082AR  21280.91667824 -.00127816  00000-0 -10826-2 0  9994
2 49169  70.0019  59.9336 0003478 283.2445 267.8248 15.69808308  3696
STARLINK-3074           
1 49170U 21082AS  21280.91667824 -.00162775  00000-0 -13831-2 0  9998
2 49170  70.0004  59.9221 0003570 281.7872 279.9503 15.69839139  3846
STARLINK-3107           
1 49171U 21082AT  21280.91667824  .00015647  00000-0  13245-3 0  9992
2 49171  70.0014  59.9324 0003484 281.7159 271.2569 15.69776909  4993
STARLINK-3091           
1 49172U 21082AU  21280.91667824 -.00137296  00000-0 -11640-2 0  9996
2 49172  70.0019  59.9187 0003738 279.8970 283.9169 15.69813438  3698
STARLINK-3045           
1 49173U 21082AV  21280.91667824 -.00091827  00000-0 -77467-3 0  9996
2 49173  70.0018  59.6091 0003694 283.9052 186.3386 15.69784702  3842
STARLINK-3047           
1 49174U 21082AW  21280.91667824 -.00091048  00000-0 -76747-3 0  9992
2 49174  70.0005  59.9247 0003740 280.7701 278.8557 15.69801661  5015
STARLINK-3087           
1 49175U 21082AX  21280.91667824 -.00102725  00000-0 -86719-3 0  9998
2 49175  70.0021  59.9173 0003703 281.1832 284.7586 15.69805558  3847
STARLINK-3069           
1 49176U 21082AY  21280.91667824 -.00125202  00000-0 -10600-2 0  9999
2 49176  70.0013  59.9064 0003594 283.3258 291.1203 15.69809563  3840
STARLINK-3103           
1 49177U 21082AZ  21280.91667824 -.00005265  00000-0 -42428-4 0  9991
2 49177  70.0007  59.9152 0003522 283.5826 284.5424 15.69708448  5041
STARLINK-3086           
1 49178U 21082BA  21280.91667824 -.00106737  00000-0 -90600-3 0  9992
2 49178  70.0010  59.9100 0003096 279.3969 293.0081 15.69690440  5008
STARLINK-3043           
1 49179U 21082BB  21280.91667824 -.00077515  00000-0 -65259-3 0  9996
2 49179  70.0016  59.9110 0003480 280.5445 289.6342 15.69784289  3842
STARLINK-3050           
1 49180U 21082BC  21280.91667824 -.00136844  00000-0 -11639-2 0  9991
2 49180  70.0008  59.9043 0003215 281.1365 295.4932 15.69737635  5018
STARLINK-3059           
1 49181U 21082BD  21280.91667824 -.00083067  00000-0 -69966-3 0  9997
2 49181  70.0020  59.9009 0003740 282.6622 296.0345 15.69791815  3697
ONEWEB-0292             
1 49186U 21083A   21280.91667824 -.01030560  00000-0 -70470-1 0  9994
2 49186  87.2791 320.0412 0018580 218.5989 190.3722 15.09195097  4824
ONEWEB-0303             
1 49187U 21083B   21280.91667824 -.01079775  00000-0 -77432-1 0  9991
2 49187  87.4543 320.2382 0016915 220.5904 241.0262 15.07147788  3611
ONEWEB-0306             
1 49188U 21083C   21280.91667824 -.01092608  00000-0 -73899-1 0  9995
2 49188  87.4576 320.2163 0020264 214.6859  38.5867 15.09249492  4810
ONEWEB-0307             
1 49189U 21083D   21280.91667824 -.01033797  00000-0 -72391-1 0  9996
2 49189  87.2769 320.0479 0016451 212.2297 104.0246 15.07909765  4829
